{"type": "FeatureCollection", "features": [{"type": "Feature", "properties": {"norad_id": 24946, "name": "IRIDIUM 33", "group": "iridium-33-debris", "lat": -58.60521753570808, "lon": 64.81466070445956, "alt_km": 781.1935631144834, "timestamp": "2025-12-06T16:45:43.105986+00:00", "meta": {"OBJECT_NAME": "IRIDIUM 33", "OBJECT_ID": "1997-051C", "EPOCH": "2025-12-06T05:19:16.082688", "MEAN_MOTION": 14.35030019, "ECCENTRICITY": 0.00063598, "INCLINATION": 86.387, "RA_OF_ASC_NODE": 70.9573, "ARG_OF_PERICENTER": 225.1347, "MEAN_ANOMALY": 134.9333, "EPHEMERIS_TYPE": 0, "CLASSIFICATION_TYPE": "U", "NORAD_CAT_ID": 24946, "ELEMENT_SET_NO": 999, "REV_AT_EPOCH": 47741, "BSTAR": 0.000227157, "MEAN_MOTION_DOT": 6.66e-06, "MEAN_MOTION_DDOT": 0}, "tle": {"line1": "1 24946U 97051C   25340.22171392  .00000666  00000+0  22716-3 0  9996", "line2": "2 24946  86.3870  70.9573 0006359 225.1347 134.9333 14.35030019477412"}}, "geometry": {"type": "Point", "coordinates": [64.81466070445956, -58.60521753570808]}}, {"type": "Feature", "properties": {"norad_id": 33773, "name": "IRIDIUM 33 DEB", "group": "iridium-33-debris", "lat": 79.08103164683278, "lon": 82.18709085212092, "alt_km": 739.783567414449, "timestamp": "2025-12-06T16:45:43.106027+00:00", "meta": {"OBJECT_NAME": "IRIDIUM 33 DEB", "OBJECT_ID": "1997-051L", "EPOCH": "2025-12-05T23:45:13.439232", "MEAN_MOTION": 14.43234008, "ECCENTRICITY": 0.0011835, "INCLINATION": 86.4017, "RA_OF_ASC_NODE": 63.4497, "ARG_OF_PERICENTER": 166.7943, "MEAN_ANOMALY": 193.357, "EPHEMERIS_TYPE": 0, "CLASSIFICATION_TYPE": "U", "NORAD_CAT_ID": 33773, "ELEMENT_SET_NO": 999, "REV_AT_EPOCH": 88250, "BSTAR": 0.00066391779, "MEAN_MOTION_DOT": 2.254e-05, "MEAN_MOTION_DDOT": 0}, "tle": {"line1": "1 33773U 97051L   25339.98973888  .00002254  00000+0  66392-3 0  9998", "line2": "2 33773  86.4017  63.4497 0011835 166.7943 193.3570 14.43234008882508"}}, "geometry": {"type": "Point", "coordinates": [82.18709085212092, 79.08103164683278]}}, {"type": "Feature", "properties": {"norad_id": 33775, "name": "IRIDIUM 33 DEB", "group": "iridium-33-debris", "lat": -22.324373912762788, "lon": -126.37139906987794, "alt_km": 750.7365587293607, "timestamp": "2025-12-06T16:45:43.106044+00:00", "meta": {"OBJECT_NAME": "IRIDIUM 33 DEB", "OBJECT_ID": "1997-051N", "EPOCH": "2025-12-05T17:05:17.332224", "MEAN_MOTION": 14.41444642, "ECCENTRICITY": 0.00134808, "INCLINATION": 86.3642, "RA_OF_ASC_NODE": 52.5534, "ARG_OF_PERICENTER": 176.816, "MEAN_ANOMALY": 309.9384, "EPHEMERIS_TYPE": 0, "CLASSIFICATION_TYPE": "U", "NORAD_CAT_ID": 33775, "ELEMENT_SET_NO": 999, "REV_AT_EPOCH": 88039, "BSTAR": 0.00063125965, "MEAN_MOTION_DOT": 2.068e-05, "MEAN_MOTION_DDOT": 0}, "tle": {"line1": "1 33775U 97051N   25339.71200616  .00002068  00000+0  63126-3 0  9998", "line2": "2 33775  86.3642  52.5534 0013480 176.8160 309.9384 14.41444642880393"}}, "geometry": {"type": "Point", "coordinates": [-126.37139906987794, -22.324373912762788]}}, {"type": "Feature", "properties": {"norad_id": 33776, "name": "IRIDIUM 33 DEB", "group": "iridium-33-debris", "lat": 37.90625660106797, "lon": -99.49434133039149, "alt_km": 758.2420487841273, "timestamp": "2025-12-06T16:45:43.106057+00:00", "meta": {"OBJECT_NAME": "IRIDIUM 33 DEB", "OBJECT_ID": "1997-051P", "EPOCH": "2025-12-06T01:52:47.091648", "MEAN_MOTION": 14.38214092, "ECCENTRICITY": 0.00136142, "INCLINATION": 86.4036, "RA_OF_ASC_NODE": 83.573, "ARG_OF_PERICENTER": 213.2162, "MEAN_ANOMALY": 320.3072, "EPHEMERIS_TYPE": 0, "CLASSIFICATION_TYPE": "U", "NORAD_CAT_ID": 33776, "ELEMENT_SET_NO": 999, "REV_AT_EPOCH": 87986, "BSTAR": 0.00054139053, "MEAN_MOTION_DOT": 1.665e-05, "MEAN_MOTION_DDOT": 0}, "tle": {"line1": "1 33776U 97051P   25340.07832282  .00001665  00000+0  54139-3 0  9996", "line2": "2 33776  86.4036  83.5730 0013614 213.2162 320.3072 14.38214092879862"}}, "geometry": {"type": "Point", "coordinates": [-99.49434133039149, 37.90625660106797]}}, {"type": "Feature", "properties": {"norad_id": 33777, "name": "IRIDIUM 33 DEB", "group": "iridium-33-debris", "lat": -85.36242091847944, "lon": -13.487832911121409, "alt_km": 711.4517664337463, "timestamp": "2025-12-06T16:45:43.106070+00:00", "meta": {"OBJECT_NAME": "IRIDIUM 33 DEB", "OBJECT_ID": "1997-051Q", "EPOCH": "2025-12-06T02:18:43.228224", "MEAN_MOTION": 14.55537438, "ECCENTRICITY": 0.00051038, "INCLINATION": 86.379, "RA_OF_ASC_NODE": 38.0933, "ARG_OF_PERICENTER": 280.4067, "MEAN_ANOMALY": 79.6565, "EPHEMERIS_TYPE": 0, "CLASSIFICATION_TYPE": "U", "NORAD_CAT_ID": 33777, "ELEMENT_SET_NO": 999, "REV_AT_EPOCH": 88437, "BSTAR": 0.0015308345, "MEAN_MOTION_DOT": 6.689e-05, "MEAN_MOTION_DDOT": 0}, "tle": {"line1": "1 33777U 97051Q   25340.09633366  .00006689  00000+0  15308-2 0  9996", "line2": "2 33777  86.3790  38.0933 0005103 280.4067  79.6565 14.55537438884377"}}, "geometry": {"type": "Point", "coordinates": [-13.487832911121409, -85.36242091847944]}}, {"type": "Feature", "properties": {"norad_id": 33850, "name": "IRIDIUM 33 DEB", "group": "iridium-33-debris", "lat": 11.540878144979116, "lon": -147.97078878828125, "alt_km": 744.8675894671151, "timestamp": "2025-12-06T16:45:43.106083+00:00", "meta": {"OBJECT_NAME": "IRIDIUM 33 DEB", "OBJECT_ID": "1997-051T", "EPOCH": "2025-12-05T15:32:06.083232", "MEAN_MOTION": 14.42123822, "ECCENTRICITY": 0.00115072, "INCLINATION": 86.3424, "RA_OF_ASC_NODE": 33.2293, "ARG_OF_PERICENTER": 183.1131, "MEAN_ANOMALY": 291.637, "EPHEMERIS_TYPE": 0, "CLASSIFICATION_TYPE": "U", "NORAD_CAT_ID": 33850, "ELEMENT_SET_NO": 999, "REV_AT_EPOCH": 88050, "BSTAR": 0.00076178787, "MEAN_MOTION_DOT": 2.525e-05, "MEAN_MOTION_DDOT": 0}, "tle": {"line1": "1 33850U 97051T   25339.64729263  .00002525  00000+0  76179-3 0  9998", "line2": "2 33850  86.3424  33.2293 0011507 183.1131 291.6370 14.42123822880500"}}, "geometry": {"type": "Point", "coordinates": [-147.97078878828125, 11.540878144979116]}}, {"type": "Feature", "properties": {"norad_id": 33853, "name": "IRIDIUM 33 DEB", "group": "iridium-33-debris", "lat": 48.245980046652896, "lon": -3.043269114796127, "alt_km": 1027.5483884298355, "timestamp": "2025-12-06T16:45:43.106096+00:00", "meta": {"OBJECT_NAME": "IRIDIUM 33 DEB", "OBJECT_ID": "1997-051W", "EPOCH": "2025-12-06T01:20:40.145280", "MEAN_MOTION": 13.98996875, "ECCENTRICITY": 0.02068178, "INCLINATION": 85.9999, "RA_OF_ASC_NODE": 352.7424, "ARG_OF_PERICENTER": 256.5072, "MEAN_ANOMALY": 157.5204, "EPHEMERIS_TYPE": 0, "CLASSIFICATION_TYPE": "U", "NORAD_CAT_ID": 33853, "ELEMENT_SET_NO": 999, "REV_AT_EPOCH": 85252, "BSTAR": 0.0034440832, "MEAN_MOTION_DOT": 5.992e-05, "MEAN_MOTION_DDOT": 0}, "tle": {"line1": "1 33853U 97051W   25340.05602020  .00005992  00000+0  34441-2 0  9995", "line2": "2 33853  85.9999 352.7424 0206817 256.5072 157.5204 13.98996875852522"}}, "geometry": {"type": "Point", "coordinates": [-3.043269114796127, 48.245980046652896]}}, {"type": "Feature", "properties": {"norad_id": 33860, "name": "IRIDIUM 33 DEB", "group": "iridium-33-debris", "lat": -83.42418305107928, "lon": -3.353399024844932, "alt_km": 678.5508197922209, "timestamp": "2025-12-06T16:45:43.106108+00:00", "meta": {"OBJECT_NAME": "IRIDIUM 33 DEB", "OBJECT_ID": "1997-051AD", "EPOCH": "2025-12-06T02:32:46.259808", "MEAN_MOTION": 14.67235819, "ECCENTRICITY": 0.00083266, "INCLINATION": 86.3843, "RA_OF_ASC_NODE": 30.1744, "ARG_OF_PERICENTER": 19.7152, "MEAN_ANOMALY": 9.2221, "EPHEMERIS_TYPE": 0, "CLASSIFICATION_TYPE": "U", "NORAD_CAT_ID": 33860, "ELEMENT_SET_NO": 999, "REV_AT_EPOCH": 88625, "BSTAR": 0.0019497463, "MEAN_MOTION_DOT": 0.00011015, "MEAN_MOTION_DDOT": 0}, "tle": {"line1": "1 33860U 97051AD  25340.10609097  .00011015  00000+0  19497-2 0  9997", "line2": "2 33860  86.3843  30.1744 0008326  19.7152   9.2221 14.67235819886258"}}, "geometry": {"type": "Point", "coordinates": [-3.353399024844932, -83.42418305107928]}}, {"type": "Feature", "properties": {"norad_id": 33862, "name": "IRIDIUM 33 DEB", "group": "iridium-33-debris", "lat": -84.25591799776635, "lon": -101.17984443297195, "alt_km": 708.4844773915356, "timestamp": "2025-12-06T16:45:43.106119+00:00", "meta": {"OBJECT_NAME": "IRIDIUM 33 DEB", "OBJECT_ID": "1997-051AF", "EPOCH": "2025-12-06T04:14:00.470976", "MEAN_MOTION": 14.6931371, "ECCENTRICITY": 0.00538127, "INCLINATION": 86.4094, "RA_OF_ASC_NODE": 40.4243, "ARG_OF_PERICENTER": 91.0344, "MEAN_ANOMALY": 294.9729, "EPHEMERIS_TYPE": 0, "CLASSIFICATION_TYPE": "U", "NORAD_CAT_ID": 33862, "ELEMENT_SET_NO": 999, "REV_AT_EPOCH": 88727, "BSTAR": 0.0022641347, "MEAN_MOTION_DOT": 0.00013701, "MEAN_MOTION_DDOT": 0}, "tle": {"line1": "1 33862U 97051AF  25340.17639434  .00013701  00000+0  22641-2 0  9993", "line2": "2 33862  86.4094  40.4243 0053812  91.0344 294.9729 14.69313710887271"}}, "geometry": {"type": "Point", "coordinates": [-101.17984443297195, -84.25591799776635]}}, {"type": "Feature", "properties": {"norad_id": 33866, "name": "IRIDIUM 33 DEB", "group": "iridium-33-debris", "lat": -29.960007801849528, "lon": -82.27122252431975, "alt_km": 742.0406159305467, "timestamp": "2025-12-06T16:45:43.106131+00:00", "meta": {"OBJECT_NAME": "IRIDIUM 33 DEB", "OBJECT_ID": "1997-051AK", "EPOCH": "2025-12-06T07:30:53.815968", "MEAN_MOTION": 14.2524046, "ECCENTRICITY": 0.01139468, "INCLINATION": 86.3004, "RA_OF_ASC_NODE": 95.7544, "ARG_OF_PERICENTER": 181.867, "MEAN_ANOMALY": 211.7701, "EPHEMERIS_TYPE": 0, "CLASSIFICATION_TYPE": "U", "NORAD_CAT_ID": 33866, "ELEMENT_SET_NO": 999, "REV_AT_EPOCH": 86719, "BSTAR": 0.0014070544, "MEAN_MOTION_DOT": 3.558e-05, "MEAN_MOTION_DDOT": 0}, "tle": {"line1": "1 33866U 97051AK  25340.31312287  .00003558  00000+0  14071-2 0  9994", "line2": "2 33866  86.3004  95.7544 0113946 181.8670 211.7701 14.25240460867196"}}, "geometry": {"type": "Point", "coordinates": [-82.27122252431975, -29.960007801849528]}}]}